{"type": "FeatureCollection", "features": [ {"type": "Feature", "properties": {"norad_id": 66516, "name": "STARLINK-35924", "group": "last-30-days", "lat": 4.647289920216029, "lon": -118.58985525609886, "alt_km": 415.1297728452955, "timestamp": "2025-12-10T14:53:35.946291+00:00", "meta": {"OBJECT_NAME": "STARLINK-35924", "OBJECT_ID": "2025-265A", "EPOCH": "2025-12-10T06:00:02.000160", "MEAN_MOTION": 15.50768122, "ECCENTRICITY": 0.00015972, "INCLINATION": 42.9994, "RA_OF_ASC_NODE": 68.5825, "ARG_OF_PERICENTER": 268.7412, "MEAN_ANOMALY": 353.5945, "EPHEMERIS_TYPE": 0, "CLASSIFICATION_TYPE": "U", "NORAD_CAT_ID": 66516, "ELEMENT_SET_NO": 999, "REV_AT_EPOCH": 457, "BSTAR": -0.010280059, "MEAN_MOTION_DOT": -0.00565599, "MEAN_MOTION_DDOT": 0}, "tle": {"line1": "1 66516U 25265A   25344.25002315 -.00565599  00000+0 -10280-1 0  9992", "line2": "2 66516  42.9994  68.5825 0001597 268.7412 353.5945 15.50768122  4576"}}, "geometry": {"type": "Point", "coordinates": [-118.58985525609886, 4.647289920216029]}}, {"type": "Feature", "properties": {"norad_id": 66517, "name": "STARLINK-35937", "group": "last-30-days", "lat": 3.2940653555960675, "lon": -117.13167709634875, "alt_km": 414.56199722157544, "timestamp": "2025-12-10T14:53:35.946300+00:00", "meta": {"OBJECT_NAME": "STARLINK-35937", "OBJECT_ID": "2025-265B", "EPOCH": "2025-12-10T06:00:02.000160", "MEAN_MOTION": 15.5059929, "ECCENTRICITY": 0.00016017, "INCLINATION": 42.9999, "RA_OF_ASC_NODE": 68.5773, "ARG_OF_PERICENTER": 267.8109, "MEAN_ANOMALY": 356.476, "EPHEMERIS_TYPE": 0, "CLASSIFICATION_TYPE": "U", "NORAD_CAT_ID": 66517, "ELEMENT_SET_NO": 999, "REV_AT_EPOCH": 459, "BSTAR": -0.0011873158, "MEAN_MOTION_DOT": -0.00069432, "MEAN_MOTION_DDOT": 0}, "tle": {"line1": "1 66517U 25265B   25344.25002315 -.00069432  00000+0 -11873-2 0  9998", "line2": "2 66517  42.9999  68.5773 0001601 267.8109 356.4760 15.50599290  4590"}}, "geometry": {"type": "Point", "coordinates": [-117.13167709634875, 3.2940653555960675]}}, {"type": "Feature", "properties": {"norad_id": 66518, "name": "STARLINK-35962", "group": "last-30-days", "lat": 1.993757132356274, "lon": -115.73665542478687, "alt_km": 414.7115708065503, "timestamp": "2025-12-10T14:53:35.946310+00:00", "meta": {"OBJECT_NAME": "STARLINK-35962", "OBJECT_ID": "2025-265C", "EPOCH": "2025-12-10T06:00:02.000160", "MEAN_MOTION": 15.50577801, "ECCENTRICITY": 0.00016233, "INCLINATION": 42.9998, "RA_OF_ASC_NODE": 68.5721, "ARG_OF_PERICENTER": 269.0506, "MEAN_ANOMALY": 357.1573, "EPHEMERIS_TYPE": 0, "CLASSIFICATION_TYPE": "U", "NORAD_CAT_ID": 66518, "ELEMENT_SET_NO": 999, "REV_AT_EPOCH": 459, "BSTAR": -0.0005918418, "MEAN_MOTION_DOT": -0.00034906, "MEAN_MOTION_DDOT": 0}, "tle": {"line1": "1 66518U 25265C   25344.25002315 -.00034906  00000+0 -59184-3 0  9995", "line2": "2 66518  42.9998  68.5721 0001623 269.0506 357.1573 15.50577801  4596"}}, "geometry": {"type": "Point", "coordinates": [-115.73665542478687, 1.993757132356274]}}, {"type": "Feature", "properties": {"norad_id": 66519, "name": "STARLINK-35931", "group": "last-30-days", "lat": 0.6878022478749292, "lon": -114.33858496859527, "alt_km": 414.84596146092827, "timestamp": "2025-12-10T14:53:35.946319+00:00", "meta": {"OBJECT_NAME": "STARLINK-35931", "OBJECT_ID": "2025-265D", "EPOCH": "2025-12-10T06:00:02.000160", "MEAN_MOTION": 15.50596397, "ECCENTRICITY": 0.00020088, "INCLINATION": 43, "RA_OF_ASC_NODE": 68.5674, "ARG_OF_PERICENTER": 268.0299, "MEAN_ANOMALY": 0.0879, "EPHEMERIS_TYPE": 0, "CLASSIFICATION_TYPE": "U", "NORAD_CAT_ID": 66519, "ELEMENT_SET_NO": 999, "REV_AT_EPOCH": 459, "BSTAR": -0.0010833477, "MEAN_MOTION_DOT": -0.00063426, "MEAN_MOTION_DDOT": 0}, "tle": {"line1": "1 66519U 25265D   25344.25002315 -.00063426  00000+0 -10833-2 0  9992", "line2": "2 66519  43.0000  68.5674 0002008 268.0299   0.0879 15.50596397  4590"}}, "geometry": {"type": "Point", "coordinates": [-114.33858496859527, 0.6878022478749292]}}, {"type": "Feature", "properties": {"norad_id": 66520, "name": "STARLINK-35952", "group": "last-30-days", "lat": -0.6213040719198003, "lon": -112.93902776203426, "alt_km": 415.00509809354753, "timestamp": "2025-12-10T14:53:35.946328+00:00", "meta": {"OBJECT_NAME": "STARLINK-35952", "OBJECT_ID": "2025-265E", "EPOCH": "2025-12-10T06:00:02.000160", "MEAN_MOTION": 15.50585889, "ECCENTRICITY": 0.00015594, "INCLINATION": 42.9997, "RA_OF_ASC_NODE": 68.562, "ARG_OF_PERICENTER": 270.1328, "MEAN_ANOMALY": 359.9056, "EPHEMERIS_TYPE": 0, "CLASSIFICATION_TYPE": "U", "NORAD_CAT_ID": 66520, "ELEMENT_SET_NO": 999, "REV_AT_EPOCH": 459, "BSTAR": -0.00079633417, "MEAN_MOTION_DOT": -0.00046792, "MEAN_MOTION_DDOT": 0}, "tle": {"line1": "1 66520U 25265E   25344.25002315 -.00046792  00000+0 -79633-3 0  9995", "line2": "2 66520  42.9997  68.5620 0001559 270.1328 359.9056 15.50585889  4590"}}, "geometry": {"type": "Point", "coordinates": [-112.93902776203426, -0.6213040719198003]}}, {"type": "Feature", "properties": {"norad_id": 66521, "name": "STARLINK-35915", "group": "last-30-days", "lat": -1.9339875628083822, "lon": -111.53394537238283, "alt_km": 415.0754037924007, "timestamp": "2025-12-10T14:53:35.946336+00:00", "meta": {"OBJECT_NAME": "STARLINK-35915", "OBJECT_ID": "2025-265F", "EPOCH": "2025-12-10T06:00:02.000160", "MEAN_MOTION": 15.50604995, "ECCENTRICITY": 0.00014641, "INCLINATION": 42.9998, "RA_OF_ASC_NODE": 68.5572, "ARG_OF_PERICENTER": 265.2655, "MEAN_ANOMALY": 6.6898, "EPHEMERIS_TYPE": 0, "CLASSIFICATION_TYPE": "U", "NORAD_CAT_ID": 66521, "ELEMENT_SET_NO": 999, "REV_AT_EPOCH": 459, "BSTAR": -0.0014011907, "MEAN_MOTION_DOT": -0.00081765, "MEAN_MOTION_DDOT": 0}, "tle": {"line1": "1 66521U 25265F   25344.25002315 -.00081765  00000+0 -14012-2 0  9994", "line2": "2 66521  42.9998  68.5572 0001464 265.2655   6.6898 15.50604995  4591"}}, "geometry": {"type": "Point", "coordinates": [-111.53394537238283, -1.9339875628083822]}}, {"type": "Feature", "properties": {"norad_id": 66522, "name": "STARLINK-35946", "group": "last-30-days", "lat": -3.237504491716666, "lon": -110.13515921581232, "alt_km": 415.3201696324277, "timestamp": "2025-12-10T14:53:35.946345+00:00", "meta": {"OBJECT_NAME": "STARLINK-35946", "OBJECT_ID": "2025-265G", "EPOCH": "2025-12-10T06:00:02.000160", "MEAN_MOTION": 15.50597455, "ECCENTRICITY": 0.00016101, "INCLINATION": 42.9996, "RA_OF_ASC_NODE": 68.5525, "ARG_OF_PERICENTER": 272.2136, "MEAN_ANOMALY": 1.6614, "EPHEMERIS_TYPE": 0, "CLASSIFICATION_TYPE": "U", "NORAD_CAT_ID": 66522, "ELEMENT_SET_NO": 999, "REV_AT_EPOCH": 459, "BSTAR": -0.0011795952, "MEAN_MOTION_DOT": -0.00068982, "MEAN_MOTION_DDOT": 0}, "tle": {"line1": "1 66522U 25265G   25344.25002315 -.00068982  00000+0 -11796-2 0  9997", "line2": "2 66522  42.9996  68.5525 0001610 272.2136   1.6614 15.50597455  4596"}}, "geometry": {"type": "Point", "coordinates": [-110.13515921581232, -3.237504491716666]}}, {"type": "Feature", "properties": {"norad_id": 66523, "name": "STARLINK-35969", "group": "last-30-days", "lat": -4.540929553284309, "lon": -108.7307064187034, "alt_km": 415.3506640188789, "timestamp": "2025-12-10T14:53:35.946355+00:00", "meta": {"OBJECT_NAME": "STARLINK-35969", "OBJECT_ID": "2025-265H", "EPOCH": "2025-12-10T06:00:02.000160", "MEAN_MOTION": 15.50596006, "ECCENTRICITY": 0.00016024, "INCLINATION": 42.9999, "RA_OF_ASC_NODE": 68.5479, "ARG_OF_PERICENTER": 267.3456, "MEAN_ANOMALY": 8.4474, "EPHEMERIS_TYPE": 0, "CLASSIFICATION_TYPE": "U", "NORAD_CAT_ID": 66523, "ELEMENT_SET_NO": 999, "REV_AT_EPOCH": 459, "BSTAR": -0.0011492631, "MEAN_MOTION_DOT": -0.00067229, "MEAN_MOTION_DDOT": 0}, "tle": {"line1": "1 66523U 25265H   25344.25002315 -.00067229  00000+0 -11493-2 0  9995", "line2": "2 66523  42.9999  68.5479 0001602 267.3456   8.4474 15.50596006  4599"}}, "geometry": {"type": "Point", "coordinates": [-108.7307064187034, -4.540929553284309]}}, {"type": "Feature", "properties": {"norad_id": 66524, "name": "STARLINK-35687", "group": "last-30-days", "lat": -5.844706179318571, "lon": -107.31811024822102, "alt_km": 415.35845859412166, "timestamp": "2025-12-10T14:53:35.946366+00:00", "meta": {"OBJECT_NAME": "STARLINK-35687", "OBJECT_ID": "2025-265J", "EPOCH": "2025-12-10T06:00:02.000160", "MEAN_MOTION": 15.50553467, "ECCENTRICITY": 0.00016248, "INCLINATION": 43.0001, "RA_OF_ASC_NODE": 68.543, "ARG_OF_PERICENTER": 270.0085, "MEAN_ANOMALY": 7.6997, "EPHEMERIS_TYPE": 0, "CLASSIFICATION_TYPE": "U", "NORAD_CAT_ID": 66524, "ELEMENT_SET_NO": 999, "REV_AT_EPOCH": 459, "BSTAR": 0.0010439873, "MEAN_MOTION_DOT": 0.0006133, "MEAN_MOTION_DDOT": 0}, "tle": {"line1": "1 66524U 25265J   25344.25002315  .00061330  00000+0  10440-2 0  9992", "line2": "2 66524  43.0001  68.5430 0001624 270.0085   7.6997 15.50553467  4591"}}, "geometry": {"type": "Point", "coordinates": [-107.31811024822102, -5.844706179318571]}}, {"type": "Feature", "properties": {"norad_id": 66525, "name": "STARLINK-35975", "group": "last-30-days", "lat": -7.139480894302126, "lon": -105.90505348290466, "alt_km": 415.5911812007198, "timestamp": "2025-12-10T14:53:35.946376+00:00", "meta": {"OBJECT_NAME": "STARLINK-35975", "OBJECT_ID": "2025-265K", "EPOCH": "2025-12-10T06:00:02.000160", "MEAN_MOTION": 15.50600882, "ECCENTRICITY": 0.00015609, "INCLINATION": 42.9998, "RA_OF_ASC_NODE": 68.5378, "ARG_OF_PERICENTER": 267.0801, "MEAN_ANOMALY": 12.5457, "EPHEMERIS_TYPE": 0, "CLASSIFICATION_TYPE": "U", "NORAD_CAT_ID": 66525, "ELEMENT_SET_NO": 999, "REV_AT_EPOCH": 459, "BSTAR": -0.001296579, "MEAN_MOTION_DOT": -0.00075734, "MEAN_MOTION_DDOT": 0}, "tle": {"line1": "1 66525U 25265K   25344.25002315 -.00075734  00000+0 -12966-2 0  9993", "line2": "2 66525  42.9998  68.5378 0001560 267.0801  12.5457 15.50600882  4597"}}, "geometry": {"type": "Point", "coordinates": [-105.90505348290466, -7.139480894302126]}}]}